{
  "norad_id": 55814,
  "name": "ONEWEB-0652",
  "history": [
    {
      "epoch": "2026-04-11T19:04:27.043680Z",
      "apogee_km": 1206.983899352772,
      "perigee_km": 1204.6070949081713,
      "latitude_deg": 7.757930780033522e-05,
      "longitude_deg": 176.84649366399384,
      "height_km": 1208.691837495288,
      "semi_major_axis_km": 7583.932497130471,
      "eccentricity": 0.0001567,
      "inclination_deg": 87.8924,
      "raan_deg": 302.9683,
      "arg_perigee_deg": 90.2502,
      "mean_anomaly_deg": 269.8808,
      "mean_motion_rev_day": 13.14501463
    },
    {
      "epoch": "2026-04-13T05:47:02.297184Z",
      "apogee_km": 1206.9790797023234,
      "perigee_km": 1204.6134992306734,
      "latitude_deg": -3.6393515081220645e-05,
      "longitude_deg": 14.485118671845536,
      "height_km": 1208.706363604817,
      "semi_major_axis_km": 7583.933289466498,
      "eccentricity": 0.00015596,
      "inclination_deg": 87.8922,
      "raan_deg": 302.6793,
      "arg_perigee_deg": 90.9152,
      "mean_anomaly_deg": 269.2156,
      "mean_motion_rev_day": 13.14501257
    },
    {
      "epoch": "2026-04-14T20:08:50.614080Z",
      "apogee_km": 1207.0000289432428,
      "perigee_km": 1204.5928884634495,
      "latitude_deg": 5.531725204678127e-05,
      "longitude_deg": 157.13887361309955,
      "height_km": 1208.7229720903583,
      "semi_major_axis_km": 7583.933458703345,
      "eccentricity": 0.0001587,
      "inclination_deg": 87.8917,
      "raan_deg": 302.3599,
      "arg_perigee_deg": 91.6851,
      "mean_anomaly_deg": 268.4461,
      "mean_motion_rev_day": 13.14501213
    },
    {
      "epoch": "2026-04-15T14:24:56.397600Z",
      "apogee_km": 1207.0070402406054,
      "perigee_km": 1204.5832155325315,
      "latitude_deg": 3.23421000620393e-05,
      "longitude_deg": -117.78757510492252,
      "height_km": 1208.7287264391052,
      "semi_major_axis_km": 7583.932127886568,
      "eccentricity": 0.0001598,
      "inclination_deg": 87.8916,
      "raan_deg": 302.2078,
      "arg_perigee_deg": 92.0093,
      "mean_anomaly_deg": 268.122,
      "mean_motion_rev_day": 13.14501559
    },
    {
      "epoch": "2026-04-16T14:09:51.884640Z",
      "apogee_km": 1207.011464756979,
      "perigee_km": 1204.5755062850294,
      "latitude_deg": 4.2029651116962275e-05,
      "longitude_deg": -115.19179519284371,
      "height_km": 1208.7297918068248,
      "semi_major_axis_km": 7583.930485521004,
      "eccentricity": 0.0001606,
      "inclination_deg": 87.8919,
      "raan_deg": 302.0101,
      "arg_perigee_deg": 92.1273,
      "mean_anomaly_deg": 268.0041,
      "mean_motion_rev_day": 13.14501986
    },
    {
      "epoch": "2026-04-17T23:02:50.248320Z",
      "apogee_km": 1207.0103859697947,
      "perigee_km": 1204.576854312404,
      "latitude_deg": 7.364179736735649e-05,
      "longitude_deg": 109.94077400518185,
      "height_km": 1208.7497263916234,
      "semi_major_axis_km": 7583.930620141099,
      "eccentricity": 0.00016044,
      "inclination_deg": 87.8918,
      "raan_deg": 301.7363,
      "arg_perigee_deg": 93.0626,
      "mean_anomaly_deg": 267.0688,
      "mean_motion_rev_day": 13.14501951
    },
    {
      "epoch": "2026-04-18T19:08:32.626176Z",
      "apogee_km": 1207.0151709859429,
      "perigee_km": 1204.5746616952647,
      "latitude_deg": 3.110814843148147e-05,
      "longitude_deg": 167.5214214509574,
      "height_km": 1208.7632056170833,
      "semi_major_axis_km": 7583.9319163406035,
      "eccentricity": 0.0001609,
      "inclination_deg": 87.8917,
      "raan_deg": 301.5688,
      "arg_perigee_deg": 93.6268,
      "mean_anomaly_deg": 266.5046,
      "mean_motion_rev_day": 13.14501614
    },
    {
      "epoch": "2026-04-19T18:53:28.138272Z",
      "apogee_km": 1207.0257428787327,
      "perigee_km": 1204.562482053404,
      "latitude_deg": 6.337388259177998e-05,
      "longitude_deg": 170.11689459767183,
      "height_km": 1208.7669153575603,
      "semi_major_axis_km": 7583.931112466068,
      "eccentricity": 0.0001624,
      "inclination_deg": 87.8915,
      "raan_deg": 301.3709,
      "arg_perigee_deg": 93.8051,
      "mean_anomaly_deg": 266.3265,
      "mean_motion_rev_day": 13.14501823
    },
    {
      "epoch": "2026-04-20T05:51:07.625664Z",
      "apogee_km": 1207.0220707189237,
      "perigee_km": 1204.5648772453533,
      "latitude_deg": 1.2110309450906883e-05,
      "longitude_deg": 5.16091012304105,
      "height_km": 1208.7693491157029,
      "semi_major_axis_km": 7583.930473982138,
      "eccentricity": 0.000162,
      "inclination_deg": 87.8914,
      "raan_deg": 301.2796,
      "arg_perigee_deg": 93.9574,
      "mean_anomaly_deg": 266.1741,
      "mean_motion_rev_day": 13.14501989
    },
    {
      "epoch": "2026-04-21T18:23:19.436352Z",
      "apogee_km": 1207.041890607291,
      "perigee_km": 1204.5513268101922,
      "latitude_deg": -1.6137761209201332e-05,
      "longitude_deg": 175.3073887878187,
      "height_km": 1208.7940174542475,
      "semi_major_axis_km": 7583.933608708741,
      "eccentricity": 0.0001642,
      "inclination_deg": 87.8916,
      "raan_deg": 300.9758,
      "arg_perigee_deg": 94.8992,
      "mean_anomaly_deg": 265.2325,
      "mean_motion_rev_day": 13.14501174
    },
    {
      "epoch": "2026-04-22T18:08:15.072864Z",
      "apogee_km": 1207.061290086638,
      "perigee_km": 1204.5297734075411,
      "latitude_deg": 8.812409775645422e-05,
      "longitude_deg": 177.90254329487632,
      "height_km": 1208.8037485780992,
      "semi_major_axis_km": 7583.932531747089,
      "eccentricity": 0.0001669,
      "inclination_deg": 87.8918,
      "raan_deg": 300.7781,
      "arg_perigee_deg": 95.3135,
      "mean_anomaly_deg": 264.8186,
      "mean_motion_rev_day": 13.14501454
    },
    {
      "epoch": "2026-04-23T10:34:44.344992Z",
      "apogee_km": 1207.0642686983,
      "perigee_km": 1204.5233485201834,
      "latitude_deg": 1.667924560305551e-05,
      "longitude_deg": -69.53145485145622,
      "height_km": 1208.8022488582774,
      "semi_major_axis_km": 7583.9308086092415,
      "eccentricity": 0.00016752,
      "inclination_deg": 87.8917,
      "raan_deg": 300.6413,
      "arg_perigee_deg": 95.3039,
      "mean_anomaly_deg": 264.8282,
      "mean_motion_rev_day": 13.14501902
    },
    {
      "epoch": "2026-04-24T12:09:16.556832Z",
      "apogee_km": 1207.0670802532877,
      "perigee_km": 1204.5234293750236,
      "latitude_deg": 1.4028553691442928e-06,
      "longitude_deg": -94.42992602192572,
      "height_km": 1208.8641944582312,
      "semi_major_axis_km": 7583.932254814155,
      "eccentricity": 0.0001677,
      "inclination_deg": 87.8906,
      "raan_deg": 300.4274,
      "arg_perigee_deg": 98.0417,
      "mean_anomaly_deg": 262.0903,
      "mean_motion_rev_day": 13.14501526
    },
    {
      "epoch": "2026-04-25T19:12:38.441952Z",
      "apogee_km": 1207.0488255076643,
      "perigee_km": 1204.5400609862381,
      "latitude_deg": -2.0126851291667235e-05,
      "longitude_deg": 158.19555684577958,
      "height_km": 1208.816044765601,
      "semi_major_axis_km": 7583.931443246951,
      "eccentricity": 0.0001654,
      "inclination_deg": 87.8917,
      "raan_deg": 300.1695,
      "arg_perigee_deg": 95.974,
      "mean_anomaly_deg": 264.1578,
      "mean_motion_rev_day": 13.14501737
    },
    {
      "epoch": "2026-04-26T22:36:47.039904Z",
      "apogee_km": 1206.9645823564142,
      "perigee_km": 1204.6167500295142,
      "latitude_deg": 2.888283819867779e-05,
      "longitude_deg": 105.80525825294168,
      "height_km": 1208.7550633636895,
      "semi_major_axis_km": 7583.927666192963,
      "eccentricity": 0.00015479,
      "inclination_deg": 87.8914,
      "raan_deg": 299.9404,
      "arg_perigee_deg": 93.5747,
      "mean_anomaly_deg": 266.556,
      "mean_motion_rev_day": 13.14502719
    },
    {
      "epoch": "2026-04-27T18:42:29.348640Z",
      "apogee_km": 1207.0867962651992,
      "perigee_km": 1204.499159356771,
      "latitude_deg": -5.8621294608833836e-05,
      "longitude_deg": 163.3871934728264,
      "height_km": 1208.849854130454,
      "semi_major_axis_km": 7583.929977810985,
      "eccentricity": 0.0001706,
      "inclination_deg": 87.8913,
      "raan_deg": 299.7739,
      "arg_perigee_deg": 97.367,
      "mean_anomaly_deg": 262.7653,
      "mean_motion_rev_day": 13.14502118
    },
    {
      "epoch": "2026-04-28T18:27:24.814080Z",
      "apogee_km": 1207.08562679449,
      "perigee_km": 1204.4979902850173,
      "latitude_deg": 2.2354817393704815e-05,
      "longitude_deg": 165.982965053916,
      "height_km": 1208.8382840896238,
      "semi_major_axis_km": 7583.928808539754,
      "eccentricity": 0.0001706,
      "inclination_deg": 87.8915,
      "raan_deg": 299.5761,
      "arg_perigee_deg": 96.9035,
      "mean_anomaly_deg": 263.2289,
      "mean_motion_rev_day": 13.14502422
    },
    {
      "epoch": "2026-04-29T12:43:30.573408Z",
      "apogee_km": 1207.0832521494613,
      "perigee_km": 1204.5018342115545,
      "latitude_deg": 7.594001477321979e-05,
      "longitude_deg": -108.94338092971866,
      "height_km": 1208.8422765967046,
      "semi_major_axis_km": 7583.929543180508,
      "eccentricity": 0.00017019,
      "inclination_deg": 87.8915,
      "raan_deg": 299.424,
      "arg_perigee_deg": 97.0659,
      "mean_anomaly_deg": 263.0665,
      "mean_motion_rev_day": 13.14502231
    },
    {
      "epoch": "2026-04-30T12:28:26.088960Z",
      "apogee_km": 1207.0838313869272,
      "perigee_km": 1204.5016549879656,
      "latitude_deg": -1.8799569937610297e-05,
      "longitude_deg": -106.34792600691955,
      "height_km": 1208.8486078006035,
      "semi_major_axis_km": 7583.929743187446,
      "eccentricity": 0.00017024,
      "inclination_deg": 87.8916,
      "raan_deg": 299.2261,
      "arg_perigee_deg": 97.3373,
      "mean_anomaly_deg": 262.795,
      "mean_motion_rev_day": 13.14502179
    }
  ]
}